[{"OBJECT_NAME":"IRIDIUM 180","OBJECT_ID":"2019-002A","EPOCH":"2026-03-09T22:12:10.971936","MEAN_MOTION":14.34217842,"ECCENTRICITY":0.00022889,"INCLINATION":86.3973,"RA_OF_ASC_NODE":35.0663,"ARG_OF_PERICENTER":84.9653,"MEAN_ANOMALY":275.1804,"EPHEMERIS_TYPE":0,"CLASSIFICATION_TYPE":"U","NORAD_CAT_ID":43922,"ELEMENT_SET_NO":999,"REV_AT_EPOCH":37476,"BSTAR":6.536861e-6,"MEAN_MOTION_DOT":3.8e-7,"MEAN_MOTION_DDOT":0},{"OBJECT_NAME":"DMSP 5D-3 F19 DEB","OBJECT_ID":"2014-015E","EPOCH":"2026-03-09T13:46:46.097760","MEAN_MOTION":14.33684048,"ECCENTRICITY":0.0007395,"INCLINATION":98.6197,"RA_OF_ASC_NODE":91.7767,"ARG_OF_PERICENTER":2.5558,"MEAN_ANOMALY":357.5663,"EPHEMERIS_TYPE":0,"CLASSIFICATION_TYPE":"U","NORAD_CAT_ID":43415,"ELEMENT_SET_NO":999,"REV_AT_EPOCH":61386,"BSTAR":0.0018564,"MEAN_MOTION_DOT":5.11e-5,"MEAN_MOTION_DDOT":0}]
